{
    "links": {
        "self": "http://www.neowsapp.com/rest/v1/neo/3825000?api_key=iIulBulltgU6a56xZRHN4H3l9WmuAYTsLGpBGhQ2"
    },
    "id": "3825000",
    "neo_reference_id": "3825000",
    "name": "(2018 KL1)",
    "designation": "2018 KL1",
    "nasa_jpl_url": "http://ssd.jpl.nasa.gov/sbdb.cgi?sstr=3825000",
    "absolute_magnitude_h": 22.4,
    "estimated_diameter": {
        "kilometers": {
            "estimated_diameter_min": 0.0880146521,
            "estimated_diameter_max": 0.1968067451
        },
        "meters": {
            "estimated_diameter_min": 88.0146520901,
            "estimated_diameter_max": 196.8067450894
        },
        "miles": {
            "estimated_diameter_min": 0.0546897524,
            "estimated_diameter_max": 0.122290004
        },
        "feet": {
            "estimated_diameter_min": 288.7619911632,
            "estimated_diameter_max": 645.6914415591
        }
    },
    "is_potentially_hazardous_asteroid": false,
    "close_approach_data": [
        {
            "close_approach_date": "2018-05-31",
            "close_approach_date_full": "2018-May-31 14:50",
            "epoch_date_close_approach": 1527778200000,
            "relative_velocity": {
                "kilometers_per_second": "13.822311571",
                "kilometers_per_hour": "49760.3216556666",
                "miles_per_hour": "30919.1287532113"
            },
            "miss_distance": {
                "astronomical": "0.08600804",
                "lunar": "33.45712756",
                "kilometers": "12866619.5868748",
                "miles": "7994946.68068024"
            },
            "orbiting_body": "Earth"
        }
    ],
    "orbital_data": {
        "orbit_id": "6",
        "orbit_determination_date": "2018-05-27 06:24:34",
        "first_observation_date": "2018-05-19",
        "last_observation_date": "2018-05-27",
        "data_arc_in_days": 8,
        "observations_used": 85,
        "orbit_uncertainty": "8",
        "minimum_orbit_intersection": ".0635106",
        "jupiter_tisserand_invariant": "3.311",
        "epoch_osculation": "2458260.5",
        "eccentricity": ".6134931921941564",
        "semi_major_axis": "2.295384679829624",
        "inclination": "5.723755865617433",
        "ascending_node_longitude": "124.4298135178611",
        "orbital_period": "1270.227892115699",
        "perihelion_distance": ".8871818052873861",
        "perihelion_argument": "174.286649961409",
        "aphelion_distance": "3.703587554371861",
        "perihelion_time": "2458304.672557886308",
        "mean_anomaly": "347.4808914701249",
        "mean_motion": ".2834137104330011",
        "equinox": "J2000",
        "orbit_class": {
            "orbit_class_type": "APO",
            "orbit_class_description": "Near-Earth asteroid orbits which cross the Earth’s orbit similar to that of 1862 Apollo",
            "orbit_class_range": "a (semi-major axis) > 1.0 AU; q (perihelion) < 1.017 AU"
        }
    },
    "is_sentry_object": false
}